GLOBALSTAR M067 [+]     
1 32263U 07048A   24026.46618025 -.00000071  00000+0  19890-3 0  9999
2 32263  51.9731  81.5213 0000402   9.3386  93.8379 12.40637519746463
GLOBALSTAR M070 [+]     
1 32264U 07048B   24026.74257257 -.00000073  00000+0  17251-3 0  9998
2 32264  51.9725 234.3433 0001378  74.2329   4.6634 12.62285720750567
GLOBALSTAR M066 [+]     
1 32265U 07048C   24026.38418059 -.00000048  00000+0  31385-3 0  9994
2 32265  51.9684  97.4519 0001072 174.3169 265.6161 12.62259134751802
GLOBALSTAR M068 [-]     
1 32266U 07048D   24026.24683543 -.00000050  00000+0  29924-3 0  9991
2 32266  51.9895  50.5670 0001135 106.9100 332.4924 12.62777294753388
GLOBALSTAR M079 [+]     
1 37188U 10054A   24025.99278240 -.00000071  00000+0  18292-3 0  9994
2 37188  52.0018 246.8135 0000745  74.3475  72.4541 12.62266130612270
GLOBALSTAR M074 [+]     
1 37189U 10054B   24026.79653880 -.00000074  00000+0  16807-3 0  9994
2 37189  51.9992 243.7683 0001047  76.4889   4.1828 12.62264959613056
GLOBALSTAR M076 [+]     
1 37190U 10054C   24026.82358536 -.00000056  00000+0  26825-3 0  9991
2 37190  52.0007 243.8136 0000910  47.7993  33.8791 12.62274052613060
GLOBALSTAR M077 [+]     
1 37191U 10054D   24025.78600796 -.00000099  00000+0  25638-4 0  9993
2 37191  52.0044 203.6790 0001105  87.0781  18.0231 12.62269122612943
